STARLINK-1470           
1 45772U 20038AU  26068.60892913  .00054678  00000+0  19687-2 0  9990
2 45772  53.0480 174.6971 0002444  12.8687 347.2373 15.28074860317065
STARLINK-34769          
1 65094U 25167S   26068.26767209  .00019588  00000+0  67167-3 0  9996
2 65094  53.1615  28.7328 0001152  76.7668 283.3461 15.30202216 33416
